[{"OBJECT_NAME":"IRIDIUM 124","OBJECT_ID":"2017-039H","EPOCH":"2026-03-05T19:39:24.228288","MEAN_MOTION":14.43270964,"ECCENTRICITY":0.0002114,"INCLINATION":86.4537,"RA_OF_ASC_NODE":333.5923,"ARG_OF_PERICENTER":84.3481,"MEAN_ANOMALY":275.7961,"EPHEMERIS_TYPE":0,"CLASSIFICATION_TYPE":"U","NORAD_CAT_ID":42810,"ELEMENT_SET_NO":999,"REV_AT_EPOCH":46020,"BSTAR":0.00016613,"MEAN_MOTION_DOT":5.79e-6,"MEAN_MOTION_DDOT":0},{"OBJECT_NAME":"IRIDIUM 128","OBJECT_ID":"2017-039J","EPOCH":"2026-03-05T12:47:42.609120","MEAN_MOTION":14.34217875,"ECCENTRICITY":0.000206,"INCLINATION":86.3909,"RA_OF_ASC_NODE":68.4844,"ARG_OF_PERICENTER":95.3629,"MEAN_ANOMALY":264.7801,"EPHEMERIS_TYPE":0,"CLASSIFICATION_TYPE":"U","NORAD_CAT_ID":42811,"ELEMENT_SET_NO":999,"REV_AT_EPOCH":45512,"BSTAR":6.7237e-6,"MEAN_MOTION_DOT":3.9e-7,"MEAN_MOTION_DDOT":0},{"OBJECT_NAME":"IRIDIUM 121","OBJECT_ID":"2017-039K","EPOCH":"2026-03-05T10:07:30.940032","MEAN_MOTION":14.34217709,"ECCENTRICITY":0.0002239,"INCLINATION":86.3966,"RA_OF_ASC_NODE":37.0214,"ARG_OF_PERICENTER":90.0964,"MEAN_ANOMALY":270.0488,"EPHEMERIS_TYPE":0,"CLASSIFICATION_TYPE":"U","NORAD_CAT_ID":42812,"ELEMENT_SET_NO":999,"REV_AT_EPOCH":45495,"BSTAR":2.034e-6,"MEAN_MOTION_DOT":2.5e-7,"MEAN_MOTION_DDOT":0},{"OBJECT_NAME":"IRIDIUM 133","OBJECT_ID":"2017-061A","EPOCH":"2026-03-05T13:33:22.675392","MEAN_MOTION":14.34217634,"ECCENTRICITY":0.0002149,"INCLINATION":86.3912,"RA_OF_ASC_NODE":68.5867,"ARG_OF_PERICENTER":90.1916,"MEAN_ANOMALY":269.9526,"EPHEMERIS_TYPE":0,"CLASSIFICATION_TYPE":"U","NORAD_CAT_ID":42955,"ELEMENT_SET_NO":999,"REV_AT_EPOCH":43992,"BSTAR":2.0346e-6,"MEAN_MOTION_DOT":2.5e-7,"MEAN_MOTION_DDOT":0},{"OBJECT_NAME":"IRIDIUM 100","OBJECT_ID":"2017-061B","EPOCH":"2026-03-05T13:24:14.635008","MEAN_MOTION":14.34217533,"ECCENTRICITY":0.0002141,"INCLINATION":86.391,"RA_OF_ASC_NODE":68.5102,"ARG_OF_PERICENTER":90.302,"MEAN_ANOMALY":269.8421,"EPHEMERIS_TYPE":0,"CLASSIFICATION_TYPE":"U","NORAD_CAT_ID":42956,"ELEMENT_SET_NO":999,"REV_AT_EPOCH":43992,"BSTAR":-3.4523e-6,"MEAN_MOTION_DOT":1.0e-7,"MEAN_MOTION_DDOT":0},{"OBJECT_NAME":"IRIDIUM 122","OBJECT_ID":"2017-061C","EPOCH":"2026-03-05T12:38:34.399392","MEAN_MOTION":14.34217898,"ECCENTRICITY":0.0002115,"INCLINATION":86.3909,"RA_OF_ASC_NODE":68.5234,"ARG_OF_PERICENTER":88.3672,"MEAN_ANOMALY":271.7766,"EPHEMERIS_TYPE":0,"CLASSIFICATION_TYPE":"U","NORAD_CAT_ID":42957,"ELEMENT_SET_NO":999,"REV_AT_EPOCH":43992,"BSTAR":8.461e-6,"MEAN_MOTION_DOT":4.3e-7,"MEAN_MOTION_DDOT":0},{"OBJECT_NAME":"IRIDIUM 129","OBJECT_ID":"2017-061D","EPOCH":"2026-03-05T13:15:06.669792","MEAN_MOTION":14.34217836,"ECCENTRICITY":0.0002536,"INCLINATION":86.3911,"RA_OF_ASC_NODE":68.5788,"ARG_OF_PERICENTER":86.1398,"MEAN_ANOMALY":274.0088,"EPHEMERIS_TYPE":0,"CLASSIFICATION_TYPE":"U","NORAD_CAT_ID":42958,"ELEMENT_SET_NO":999,"REV_AT_EPOCH":43994,"BSTAR":-2.8186e-6,"MEAN_MOTION_DOT":1.2e-7,"MEAN_MOTION_DDOT":0},{"OBJECT_NAME":"IRIDIUM 119","OBJECT_ID":"2017-061E","EPOCH":"2026-03-05T12:29:26.648448","MEAN_MOTION":14.34217664,"ECCENTRICITY":0.0002126,"INCLINATION":86.3911,"RA_OF_ASC_NODE":68.5875,"ARG_OF_PERICENTER":85.5153,"MEAN_ANOMALY":274.6286,"EPHEMERIS_TYPE":0,"CLASSIFICATION_TYPE":"U","NORAD_CAT_ID":42959,"ELEMENT_SET_NO":999,"REV_AT_EPOCH":43995,"BSTAR":-1.4792e-6,"MEAN_MOTION_DOT":1.6e-7,"MEAN_MOTION_DDOT":0},{"OBJECT_NAME":"IRIDIUM 107","OBJECT_ID":"2017-061F","EPOCH":"2026-03-05T12:56:50.561376","MEAN_MOTION":14.34217861,"ECCENTRICITY":0.0001872,"INCLINATION":86.3911,"RA_OF_ASC_NODE":68.6,"ARG_OF_PERICENTER":86.7048,"MEAN_ANOMALY":273.4362,"EPHEMERIS_TYPE":0,"CLASSIFICATION_TYPE":"U","NORAD_CAT_ID":42960,"ELEMENT_SET_NO":999,"REV_AT_EPOCH":43996,"BSTAR":1.8563e-6,"MEAN_MOTION_DOT":2.5e-7,"MEAN_MOTION_DDOT":0},{"OBJECT_NAME":"IRIDIUM 132","OBJECT_ID":"2017-061G","EPOCH":"2026-03-05T11:25:30.552384","MEAN_MOTION":14.34217915,"ECCENTRICITY":0.0002107,"INCLINATION":86.3911,"RA_OF_ASC_NODE":68.6068,"ARG_OF_PERICENTER":90.0586,"MEAN_ANOMALY":270.0851,"EPHEMERIS_TYPE":0,"CLASSIFICATION_TYPE":"U","NORAD_CAT_ID":42961,"ELEMENT_SET_NO":999,"REV_AT_EPOCH":43995,"BSTAR":1.0602e-5,"MEAN_MOTION_DOT":4.9e-7,"MEAN_MOTION_DDOT":0},{"OBJECT_NAME":"IRIDIUM 136","OBJECT_ID":"2017-061H","EPOCH":"2026-03-05T12:11:10.617792","MEAN_MOTION":14.34217591,"ECCENTRICITY":0.000204,"INCLINATION":86.391,"RA_OF_ASC_NODE":68.5998,"ARG_OF_PERICENTER":86.9968,"MEAN_ANOMALY":273.1462,"EPHEMERIS_TYPE":0,"CLASSIFICATION_TYPE":"U","NORAD_CAT_ID":42962,"ELEMENT_SET_NO":999,"REV_AT_EPOCH":43997,"BSTAR":-7.2357e-6,"MEAN_MOTION_DOT":0,"MEAN_MOTION_DDOT":0},{"OBJECT_NAME":"IRIDIUM 139","OBJECT_ID":"2017-061J","EPOCH":"2026-03-05T12:20:18.653856","MEAN_MOTION":14.34217564,"ECCENTRICITY":0.0001978,"INCLINATION":86.3912,"RA_OF_ASC_NODE":68.6575,"ARG_OF_PERICENTER":91.0056,"MEAN_ANOMALY":269.1367,"EPHEMERIS_TYPE":0,"CLASSIFICATION_TYPE":"U","NORAD_CAT_ID":42963,"ELEMENT_SET_NO":999,"REV_AT_EPOCH":43998,"BSTAR":-4.0651e-6,"MEAN_MOTION_DOT":8.0e-8,"MEAN_MOTION_DDOT":0},{"OBJECT_NAME":"IRIDIUM 125","OBJECT_ID":"2017-061K","EPOCH":"2026-03-05T12:02:02.559264","MEAN_MOTION":14.34217615,"ECCENTRICITY":0.000187,"INCLINATION":86.3913,"RA_OF_ASC_NODE":68.7221,"ARG_OF_PERICENTER":74.0898,"MEAN_ANOMALY":286.0503,"EPHEMERIS_TYPE":0,"CLASSIFICATION_TYPE":"U","NORAD_CAT_ID":42964,"ELEMENT_SET_NO":999,"REV_AT_EPOCH":43999,"BSTAR":-4.3815e-6,"MEAN_MOTION_DOT":8.0e-8,"MEAN_MOTION_DDOT":0},{"OBJECT_NAME":"IRIDIUM 135","OBJECT_ID":"2017-083A","EPOCH":"2026-03-05T18:06:39.498912","MEAN_MOTION":14.34219559,"ECCENTRICITY":0.0002194,"INCLINATION":86.402,"RA_OF_ASC_NODE":5.2363,"ARG_OF_PERICENTER":86.0287,"MEAN_ANOMALY":274.1159,"EPHEMERIS_TYPE":0,"CLASSIFICATION_TYPE":"U","NORAD_CAT_ID":43070,"ELEMENT_SET_NO":999,"REV_AT_EPOCH":42932,"BSTAR":0.00014119,"MEAN_MOTION_DOT":4.15e-6,"MEAN_MOTION_DDOT":0},{"OBJECT_NAME":"IRIDIUM 138","OBJECT_ID":"2017-083B","EPOCH":"2026-03-05T08:40:23.200032","MEAN_MOTION":14.342174,"ECCENTRICITY":0.0002218,"INCLINATION":86.4027,"RA_OF_ASC_NODE":5.0804,"ARG_OF_PERICENTER":75.5162,"MEAN_ANOMALY":284.628,"EPHEMERIS_TYPE":0,"CLASSIFICATION_TYPE":"U","NORAD_CAT_ID":43071,"ELEMENT_SET_NO":999,"REV_AT_EPOCH":42925,"BSTAR":-1.3877e-5,"MEAN_MOTION_DOT":-1.9e-7,"MEAN_MOTION_DDOT":0},{"OBJECT_NAME":"IRIDIUM 116","OBJECT_ID":"2017-083C","EPOCH":"2026-03-05T19:37:59.162304","MEAN_MOTION":14.34217805,"ECCENTRICITY":0.0002072,"INCLINATION":86.4021,"RA_OF_ASC_NODE":5.1971,"ARG_OF_PERICENTER":93.751,"MEAN_ANOMALY":266.3922,"EPHEMERIS_TYPE":0,"CLASSIFICATION_TYPE":"U","NORAD_CAT_ID":43072,"ELEMENT_SET_NO":999,"REV_AT_EPOCH":42935,"BSTAR":4.3726e-6,"MEAN_MOTION_DOT":3.2e-7,"MEAN_MOTION_DDOT":0},{"OBJECT_NAME":"IRIDIUM 130","OBJECT_ID":"2017-083D","EPOCH":"2026-03-05T20:32:47.109120","MEAN_MOTION":14.34217988,"ECCENTRICITY":0.000189,"INCLINATION":86.4025,"RA_OF_ASC_NODE":5.4462,"ARG_OF_PERICENTER":88.6892,"MEAN_ANOMALY":271.452,"EPHEMERIS_TYPE":0,"CLASSIFICATION_TYPE":"U","NORAD_CAT_ID":43073,"ELEMENT_SET_NO":999,"REV_AT_EPOCH":42930,"BSTAR":4.08e-5,"MEAN_MOTION_DOT":1.34e-6,"MEAN_MOTION_DDOT":0}]
